NORAD_CAT_ID,OBJECT_NAME,OBJECT_TYPE,EPOCH,MEAN_MOTION,ECCENTRICITY,INCLINATION,RA_OF_ASC_NODE,ARG_OF_PERICENTER,MEAN_ANOMALY,BSTAR,MEAN_MOTION_DOT,MEAN_MOTION_DDOT,TLE_LINE0,TLE_LINE1,TLE_LINE2,SEMIMAJOR_AXIS,PERIOD,APOGEE,PERIGEE,DECAYED
52676.0,STARLINK-4006,PAYLOAD,2024-03-27 18:10:59,15.08894265,7.83e-05,53.2149,110.1032,86.6968,273.4114,0.00024508,3.621e-05,0.0,0 STARLINK-4006,1 52676U 22053W   24087.75762935  .00003621  00000-0  24508-3 0  9997,2 52676  53.2149 110.1032 0000783  86.6968 273.4114 15.08894265103139,6917.715,95.434,540.121,539.038,0.0
52676.0,STARLINK-4006,PAYLOAD,2024-03-28 05:18:42,15.08800263,0.0001233,53.2152,108.0204,91.7728,268.3405,-0.0020853,-0.00033286,0.0,0 STARLINK-4006,1 52676U 22053W   24088.22132775 -.00033286  00000-0 -20853-2 0  9993,2 52676  53.2152 108.0204 0001233  91.7728 268.3405 15.08800263103201,6918.002,95.44,540.72,539.014,0.0
52676.0,STARLINK-4006,PAYLOAD,2024-03-28 08:29:30,15.08775833,0.0001052,53.2147,107.4261,74.809,285.3019,-0.0022971,-0.00036596,0.0,0 STARLINK-4006,1 52676U 22053W   24088.35381952 -.00036596  00000-0 -22971-2 0  9990,2 52676  53.2147 107.4261 0001052  74.8090 285.3019 15.08775833103220,6918.077,95.442,540.669,539.214,0.0
52676.0,STARLINK-4006,PAYLOAD,2024-03-28 18:01:50,15.08779489,0.0001229,53.215,105.6416,107.4375,252.6752,-0.00012552,-2.281e-05,0.0,0 STARLINK-4006,1 52676U 22053W   24088.75127626 -.00002281  00000-0 -12552-3 0  9999,2 52676  53.2150 105.6416 0001229 107.4375 252.6752 15.08779489103289,6918.065,95.441,540.781,539.08,0.0
52676.0,STARLINK-4006,PAYLOAD,2024-03-29 05:09:32,15.0883051,0.0001203,53.2153,103.5642,128.1655,231.9446,0.001943,0.00030762,0.0,0 STARLINK-4006,1 52676U 22053W   24089.21496015  .00030762  00000-0  19430-2 0  9996,2 52676  53.2153 103.5642 0001203 128.1655 231.9446 15.08830510103354,6917.909,95.438,540.607,538.942,0.0
52676.0,STARLINK-4006,PAYLOAD,2024-03-29 09:55:41,15.08845316,0.0001421,53.2153,102.6703,112.7711,247.3431,0.0016931,0.00026764,0.0,0 STARLINK-4006,1 52676U 22053W   24089.41367895  .00026764  00000-0  16931-2 0  9991,2 52676  53.2153 102.6703 0001421 112.7711 247.3431 15.08845316103812,6917.864,95.437,540.712,538.746,0.0
52676.0,STARLINK-4006,PAYLOAD,2024-03-29 17:52:37,15.08861648,0.00014,53.2154,101.1821,109.2353,250.8791,0.00098171,0.0001538,0.0,0 STARLINK-4006,1 52676U 22053W   24089.74487343  .00015380  00000-0  98171-3 0  9997,2 52676  53.2154 101.1821 0001400 109.2353 250.8791 15.08861648103867,6917.814,95.436,540.648,538.711,0.0
52676.0,STARLINK-4006,PAYLOAD,2024-03-30 05:00:18,15.08863341,0.0001477,53.2159,99.1028,107.6927,252.4227,0.00061694,9.55e-05,0.0,0 STARLINK-4006,1 52676U 22053W   24090.20854709  .00009550  00000-0  61694-3 0  9996,2 52676  53.2159  99.1028 0001477 107.6927 252.4227 15.08863341103505,6917.809,95.436,540.696,538.652,0.0
52676.0,STARLINK-4006,PAYLOAD,2024-03-30 08:11:04,15.08866624,0.0001452,53.2154,98.5084,109.3305,250.7844,0.00046142,7.068e-05,0.0,0 STARLINK-4006,1 52676U 22053W   24090.34102362  .00007068  00000-0  46142-3 0  9995,2 52676  53.2154  98.5084 0001452 109.3305 250.7844 15.08866624103959,6917.799,95.436,540.668,538.66,0.0
52676.0,STARLINK-4006,PAYLOAD,2024-03-30 17:43:23,15.0885854,0.0001449,53.2158,96.7232,104.0253,256.09,0.00018403,2.644e-05,0.0,0 STARLINK-4006,1 52676U 22053W   24090.73846112  .00002644  00000-0  18403-3 0  9990,2 52676  53.2158  96.7232 0001449 104.0253 256.0900 15.08858540103587,6917.824,95.436,540.691,538.686,0.0
52676.0,STARLINK-4006,PAYLOAD,2024-03-31 04:51:05,15.08851008,0.0001533,53.2166,94.6426,100.1,260.0165,3.8936e-05,3.32e-06,0.0,0 STARLINK-4006,1 52676U 22053W   24091.20214232  .00000332  00000-0  38936-4 0  9991,2 52676  53.2166  94.6426 0001533 100.1000 260.0165 15.08851008103657,6917.847,95.437,540.772,538.651,0.0
52676.0,STARLINK-4006,PAYLOAD,2024-03-31 06:26:28,15.0885363,0.0001454,53.2171,94.3437,108.8708,251.2442,9.2578e-05,1.186e-05,0.0,0 STARLINK-4006,1 52676U 22053W   24091.26838108  .00001186  00000-0  92578-4 0  9991,2 52676  53.2171  94.3437 0001454 108.8708 251.2442 15.08853630104096,6917.839,95.437,540.71,538.698,0.0
52676.0,STARLINK-4006,PAYLOAD,2024-03-31 17:34:10,15.08841824,0.0001327,53.2147,92.2614,108.2679,251.8457,-0.00010946,-2.03e-05,0.0,0 STARLINK-4006,1 52676U 22053W   24091.73206259 -.00002030  00000-0 -10946-3 0  9998,2 52676  53.2147  92.2614 0001327 108.2679 251.8457 15.08841824103737,6917.875,95.437,540.658,538.822,0.0
52676.0,STARLINK-4006,PAYLOAD,2024-04-01 09:28:01,15.08848302,0.0001379,53.2175,89.2884,108.931,251.1831,-7.9044e-05,-1.546e-05,0.0,0 STARLINK-4006,1 52676U 22053W   24092.39446429 -.00001546  00000-0 -79044-4 0  9992,2 52676  53.2175  89.2884 0001379 108.9310 251.1831 15.08848302104265,6917.855,95.437,540.674,538.766,0.0
52676.0,STARLINK-4006,PAYLOAD,2024-04-02 02:57:15,15.08845065,0.0001468,53.2165,86.0168,100.2557,259.8601,0.00011669,1.57e-05,0.0,0 STARLINK-4006,1 52676U 22053W   24093.12310174  .00001570  00000-0  11669-3 0  9994,2 52676  53.2165  86.0168 0001468 100.2557 259.8601 15.08845065103948,6917.865,95.437,540.745,538.714,0.0
52676.0,STARLINK-4006,PAYLOAD,2024-04-02 09:18:48,15.08844277,0.0001492,53.2171,84.8269,109.0033,251.1121,0.00018167,2.605e-05,0.0,0 STARLINK-4006,1 52676U 22053W   24093.38806094  .00002605  00000-0  18167-3 0  9993,2 52676  53.2171  84.8269 0001492 109.0033 251.1121 15.08844277104415,6917.867,95.437,540.764,538.7,0.0
52676.0,STARLINK-4006,PAYLOAD,2024-04-03 05:58:50,15.08833125,0.0001336,53.2165,80.9614,96.575,263.5394,0.00010297,1.351e-05,0.0,0 STARLINK-4006,1 52676U 22053W   24094.24919242  .00001351  00000-0  10297-3 0  9992,2 52676  53.2165  80.9614 0001336  96.5750 263.5394 15.08833125104118,6917.901,95.438,540.691,538.842,0.0
52676.0,STARLINK-4006,PAYLOAD,2024-04-03 07:34:13,15.08836184,0.0001318,53.2165,80.6637,95.7583,264.356,8.4092e-05,1.051e-05,0.0,0 STARLINK-4006,1 52676U 22053W   24094.31543088  .00001051  00000-0  84092-4 0  9993,2 52676  53.2165  80.6637 0001318  95.7583 264.3560 15.08836184104555,6917.892,95.438,540.669,538.845,0.0
52676.0,STARLINK-4006,PAYLOAD,2024-04-04 05:49:36,15.08844839,0.0001422,53.2172,76.501,95.0473,265.0681,6.0627e-05,6.77e-06,0.0,0 STARLINK-4006,1 52676U 22053W   24095.24278569  .00000677  00000-0  60627-4 0  9996,2 52676  53.2172  76.5010 0001422  95.0473 265.0681 15.08844839104265,6917.866,95.437,540.714,538.747,0.0
52676.0,STARLINK-4006,PAYLOAD,2024-04-04 09:00:22,15.08843266,0.0001479,53.2175,75.9072,97.4574,262.6587,7.2818e-05,8.71e-06,0.0,0 STARLINK-4006,1 52676U 22053W   24095.37526615  .00000871  00000-0  72818-4 0  9999,2 52676  53.2175  75.9072 0001479  97.4574 262.6587 15.08843266104710,6917.87,95.437,540.759,538.712,0.0
52676.0,STARLINK-4006,PAYLOAD,2024-04-04 15:21:55,15.08839762,0.000143,53.2174,74.7175,96.3729,263.7427,7.0882e-05,8.4e-06,0.0,0 STARLINK-4006,1 52676U 22053W   24095.64022806  .00000840  00000-0  70882-4 0  9997,2 52676  53.2174  74.7175 0001430  96.3729 263.7427 15.08839762104752,6917.881,95.438,540.735,538.757,0.0
52676.0,STARLINK-4006,PAYLOAD,2024-04-05 05:40:24,15.08838013,0.0001543,53.2178,72.0433,102.1006,258.0159,8.6833e-05,1.094e-05,0.0,0 STARLINK-4006,1 52676U 22053W   24096.23639037  .00001094  00000-0  86833-4 0  9998,2 52676  53.2178  72.0433 0001543 102.1006 258.0159 15.08838013104413,6917.886,95.438,540.819,538.684,0.0
52676.0,STARLINK-4006,PAYLOAD,2024-04-05 08:51:10,15.08839836,0.0001539,53.2178,71.4482,100.862,259.2545,9.8038e-05,1.273e-05,0.0,0 STARLINK-4006,1 52676U 22053W   24096.36886905  .00001273  00000-0  98038-4 0  9999,2 52676  53.2178  71.4482 0001539 100.8620 259.2545 15.08839836104867,6917.881,95.438,540.811,538.681,0.0
52676.0,STARLINK-4006,PAYLOAD,2024-04-05 21:34:15,15.08844667,0.0001688,53.2178,69.0693,100.2912,259.8271,-4.486e-05,-1.002e-05,0.0,0 STARLINK-4006,1 52676U 22053W   24096.89879145 -.00001002  00000-0 -44860-4 0  9991,2 52676  53.2178  69.0693 0001688 100.2912 259.8271 15.08844667104946,6917.866,95.437,540.899,538.563,0.0
52676.0,STARLINK-4006,PAYLOAD,2024-04-06 03:55:48,15.0883134,0.0001476,53.2182,67.8801,92.1394,267.9767,-3.7037e-05,-8.77e-06,0.0,0 STARLINK-4006,1 52676U 22053W   24097.16376033 -.00000877  00000-0 -37037-4 0  9997,2 52676  53.2182  67.8801 0001476  92.1394 267.9767 15.08831340104557,6917.907,95.438,540.793,538.751,0.0
52676.0,STARLINK-4006,PAYLOAD,2024-04-06 07:06:35,15.08832012,0.0001473,53.218,67.285,92.5561,267.5599,-3.6762e-05,-8.73e-06,0.0,0 STARLINK-4006,1 52676U 22053W   24097.29624028 -.00000873  00000-0 -36762-4 0  9991,2 52676  53.2180  67.2850 0001473  92.5561 267.5599 15.08832012105007,6917.905,95.438,540.789,538.751,0.0
52676.0,STARLINK-4006,PAYLOAD,2024-04-06 15:03:30,15.08838325,0.0001501,53.2181,65.7974,89.2646,270.8519,2.005e-05,3.1e-07,0.0,0 STARLINK-4006,1 52676U 22053W   24097.62743538  .00000031  00000-0  20050-4 0  9993,2 52676  53.2181  65.7974 0001501  89.2646 270.8519 15.08838325104626,6917.886,95.438,540.789,538.712,0.0
52676.0,STARLINK-4006,PAYLOAD,2024-04-07 05:21:57,15.0884884,0.000148,53.218,63.121,87.8206,272.2956,8.8963e-05,1.128e-05,0.0,0 STARLINK-4006,1 52676U 22053W   24098.22358657  .00001128  00000-0  88963-4 0  9999,2 52676  53.2180  63.1210 0001480  87.8206 272.2956 15.08848840105144,6917.853,95.437,540.742,538.695,0.0
52676.0,STARLINK-4006,PAYLOAD,2024-04-07 21:15:49,15.08851388,0.0001496,53.2179,60.1457,85.6257,274.4906,-0.00011178,-2.067e-05,0.0,0 STARLINK-4006,1 52676U 22053W   24098.88598820 -.00002067  00000-0 -11178-3 0  9997,2 52676  53.2179  60.1457 0001496  85.6257 274.4906 15.08851388105242,6917.846,95.437,540.745,538.676,0.0
52676.0,STARLINK-4006,PAYLOAD,2024-04-08 03:37:22,15.08836294,0.0001411,53.2178,58.9562,89.3094,270.806,0.00011255,1.504e-05,0.0,0 STARLINK-4006,1 52676U 22053W   24099.15095391  .00001504  00000-0  11255-3 0  9992,2 52676  53.2178  58.9562 0001411  89.3094 270.8060 15.08836294104856,6917.892,95.438,540.733,538.781,0.0
